start=new Date('2022-11-22T00:00:00.000Z').valueOf();
sats=[{"FILE":"3666658","EPOCH":"2022-11-21T19:11:19.843008","COUNTRY_CODE":"US","MEAN_ANOMALY":"337.0817","CENTER_NAME":"EARTH","TIME_SYSTEM":"UTC","GP_ID":"218433545","REF_FRAME":"TEME","OBJECT_ID":"2021-125AM","TLE_LINE1":"1 50191U 21125AM  22325.79953522  .00001324  00000-0  10133-3 0  9994","APOAPSIS":"541.792","PERIOD":"95.438","RCS_SIZE":"LARGE","ECCENTRICITY":"0.00029410","PERIAPSIS":"537.723","NORAD_CAT_ID":"50191","BSTAR":"0.00010133000000","ELEMENT_SET_NO":"999","RA_OF_ASC_NODE":"263.5902","OBJECT_NAME":"STARLINK-3273","SEMIMAJOR_AXIS":"6917.892","MEAN_MOTION_DOT":"0.00001324","LAUNCH_DATE":"2021-12-18","INCLINATION":"53.2181","MEAN_MOTION_DDOT":"0.0000000000000","ARG_OF_PERICENTER":"23.0306","CLASSIFICATION_TYPE":"U","MEAN_MOTION":"15.08836168","EPHEMERIS_TYPE":"0","OBJECT_TYPE":"PAYLOAD","MEAN_ELEMENT_THEORY":"SGP4","TLE_LINE2":"2 50191  53.2181 263.5902 0002941  23.0306 337.0817 15.08836168 54706","REV_AT_EPOCH":"5470","DECAY_DATE":null,"SITE":"AFWTR"},{"TLE_LINE2":"2 50192  53.2174 243.6589 0002820  30.2146 329.9008 15.08848878 54980","SITE":"AFWTR","DECAY_DATE":null,"REV_AT_EPOCH":"5498","MEAN_ELEMENT_THEORY":"SGP4","OBJECT_TYPE":"PAYLOAD","MEAN_MOTION":"15.08848878","EPHEMERIS_TYPE":"0","LAUNCH_DATE":"2021-12-18","MEAN_MOTION_DOT":"0.00002861","SEMIMAJOR_AXIS":"6917.853","OBJECT_NAME":"STARLINK-3259","CLASSIFICATION_TYPE":"U","MEAN_MOTION_DDOT":"0.0000000000000","ARG_OF_PERICENTER":"30.2146","INCLINATION":"53.2174","ELEMENT_SET_NO":"999","BSTAR":"0.00019776000000","NORAD_CAT_ID":"50192","RA_OF_ASC_NODE":"243.6589","PERIAPSIS":"537.767","RCS_SIZE":"LARGE","PERIOD":"95.437","ECCENTRICITY":"0.00028200","APOAPSIS":"541.669","TLE_LINE1":"1 50192U 21125AN  22325.78665051  .00002861  00000-0  19776-3 0  9990","OBJECT_ID":"2021-125AN","COUNTRY_CODE":"US","MEAN_ANOMALY":"329.9008","EPOCH":"2022-11-21T18:52:46.604064","FILE":"3666658","GP_ID":"218434797","REF_FRAME":"TEME","CENTER_NAME":"EARTH","TIME_SYSTEM":"UTC"},{"PERIAPSIS":"537.797","PERIOD":"95.438","RCS_SIZE":"LARGE","ECCENTRICITY":"0.00028390","APOAPSIS":"541.725","TLE_LINE1":"1 50193U 21125AP  22325.79769206  .00001918  00000-0  13861-3 0  9990","OBJECT_ID":"2021-125AP","GP_ID":"218434544","REF_FRAME":"TEME","CENTER_NAME":"EARTH","TIME_SYSTEM":"UTC","COUNTRY_CODE":"US","MEAN_ANOMALY":"329.2062","EPOCH":"2022-11-21T19:08:40.593984","FILE":"3666658","CLASSIFICATION_TYPE":"U","MEAN_MOTION_DDOT":"0.0000000000000","ARG_OF_PERICENTER":"30.9097","INCLINATION":"53.2179","LAUNCH_DATE":"2021-12-18","SEMIMAJOR_AXIS":"6917.896","MEAN_MOTION_DOT":"0.00001918","OBJECT_NAME":"STARLINK-3261","RA_OF_ASC_NODE":"243.6102","ELEMENT_SET_NO":"999","BSTAR":"0.00013861000000","NORAD_CAT_ID":"50193","EPHEMERIS_TYPE":"0","MEAN_MOTION":"15.08834999","SITE":"AFWTR","DECAY_DATE":null,"REV_AT_EPOCH":"5503","TLE_LINE2":"2 50193  53.2179 243.6102 0002839  30.9097 329.2062 15.08834999 55038","MEAN_ELEMENT_THEORY":"SGP4","OBJECT_TYPE":"PAYLOAD"},{"FILE":"3666297","MEAN_ANOMALY":"324.2919","COUNTRY_CODE":"US","EPOCH":"2022-11-21T12:25:55.794432","TIME_SYSTEM":"UTC","CENTER_NAME":"EARTH","REF_FRAME":"TEME","GP_ID":"218401326","TLE_LINE1":"1 50194U 21125AQ  22325.51800688  .00000204  00000-0  30906-4 0  9998","APOAPSIS":"541.569","OBJECT_ID":"2021-125AQ","PERIAPSIS":"537.870","ECCENTRICITY":"0.00026730","RCS_SIZE":"LARGE","PERIOD":"95.437","BSTAR":"0.00003090600000","NORAD_CAT_ID":"50194","ELEMENT_SET_NO":"999","RA_OF_ASC_NODE":"244.8629","OBJECT_NAME":"STARLINK-3269","LAUNCH_DATE":"2021-12-18","SEMIMAJOR_AXIS":"6917.854","MEAN_MOTION_DOT":"0.00000204","INCLINATION":"53.2196","CLASSIFICATION_TYPE":"U","ARG_OF_PERICENTER":"35.8252","MEAN_MOTION_DDOT":"0.0000000000000","MEAN_MOTION":"15.08848503","EPHEMERIS_TYPE":"0","MEAN_ELEMENT_THEORY":"SGP4","OBJECT_TYPE":"PAYLOAD","TLE_LINE2":"2 50194  53.2196 244.8629 0002673  35.8252 324.2919 15.08848503 54994","REV_AT_EPOCH":"5499","SITE":"AFWTR","DECAY_DATE":null},{"EPHEMERIS_TYPE":"0","MEAN_MOTION":"15.08842792","SITE":"AFWTR","DECAY_DATE":null,"REV_AT_EPOCH":"5498","TLE_LINE2":"2 50195  53.2168 243.6260 0002318  36.6050 323.5101 15.08842792 54981","MEAN_ELEMENT_THEORY":"SGP4","OBJECT_TYPE":"PAYLOAD","PERIAPSIS":"538.133","ECCENTRICITY":"0.00023180","RCS_SIZE":"LARGE","PERIOD":"95.437","TLE_LINE1":"1 50195U 21125AR  22325.79401498  .00002879  00000-0  19891-3 0  9994","APOAPSIS":"541.340","OBJECT_ID":"2021-125AR","REF_FRAME":"TEME","GP_ID":"218434046","TIME_SYSTEM":"UTC","CENTER_NAME":"EARTH","EPOCH":"2022-11-21T19:03:22.894272","COUNTRY_CODE":"US","MEAN_ANOMALY":"323.5101","FILE":"3666658","CLASSIFICATION_TYPE":"U","MEAN_MOTION_DDOT":"0.0000000000000","ARG_OF_PERICENTER":"36.6050","INCLINATION":"53.2168","LAUNCH_DATE":"2021-12-18","MEAN_MOTION_DOT":"0.00002879","SEMIMAJOR_AXIS":"6917.872","OBJECT_NAME":"STARLINK-3266","RA_OF_ASC_NODE":"243.6260","ELEMENT_SET_NO":"999","BSTAR":"0.00019891000000","NORAD_CAT_ID":"50195"},{"EPHEMERIS_TYPE":"0","MEAN_MOTION":"15.08840482","MEAN_ELEMENT_THEORY":"SGP4","OBJECT_TYPE":"PAYLOAD","REV_AT_EPOCH":"5489","SITE":"AFWTR","DECAY_DATE":null,"TLE_LINE2":"2 50196  53.2153 246.3868 0002992  29.9652 330.1511 15.08840482 54894","CENTER_NAME":"EARTH","TIME_SYSTEM":"UTC","REF_FRAME":"TEME","GP_ID":"218399825","FILE":"3666297","EPOCH":"2022-11-21T04:18:25.283520","COUNTRY_CODE":"US","MEAN_ANOMALY":"330.1511","TLE_LINE1":"1 50196U 21125AS  22325.17945930 -.00000366  00000-0 -48314-5 0  9996","APOAPSIS":"541.814","OBJECT_ID":"2021-125AS","PERIAPSIS":"537.674","RCS_SIZE":"LARGE","ECCENTRICITY":"0.00029920","PERIOD":"95.438","RA_OF_ASC_NODE":"246.3868","BSTAR":"-0.00000483140000","NORAD_CAT_ID":"50196","ELEMENT_SET_NO":"999","INCLINATION":"53.2153","CLASSIFICATION_TYPE":"U","MEAN_MOTION_DDOT":"0.0000000000000","ARG_OF_PERICENTER":"29.9652","OBJECT_NAME":"STARLINK-3263","LAUNCH_DATE":"2021-12-18","SEMIMAJOR_AXIS":"6917.879","MEAN_MOTION_DOT":"-0.00000366"},{"PERIAPSIS":"537.831","PERIOD":"95.438","RCS_SIZE":"LARGE","ECCENTRICITY":"0.00027840","TLE_LINE1":"1 50197U 21125AT  22325.18314135  .00002703  00000-0  18790-3 0  9993","APOAPSIS":"541.682","OBJECT_ID":"2021-125AT","COUNTRY_CODE":"US","EPOCH":"2022-11-21T04:23:43.412640","MEAN_ANOMALY":"343.8957","FILE":"3666297","GP_ID":"218400576","REF_FRAME":"TEME","TIME_SYSTEM":"UTC","CENTER_NAME":"EARTH","LAUNCH_DATE":"2021-12-18","MEAN_MOTION_DOT":"0.00002703","SEMIMAJOR_AXIS":"6917.891","OBJECT_NAME":"STARLINK-3267","CLASSIFICATION_TYPE":"U","ARG_OF_PERICENTER":"16.2124","MEAN_MOTION_DDOT":"0.0000000000000","INCLINATION":"53.2164","ELEMENT_SET_NO":"999","BSTAR":"0.00018790000000","NORAD_CAT_ID":"50197","RA_OF_ASC_NODE":"246.3753","MEAN_MOTION":"15.08836384","EPHEMERIS_TYPE":"0","TLE_LINE2":"2 50197  53.2164 246.3753 0002784  16.2124 343.8957 15.08836384 54949","SITE":"AFWTR","DECAY_DATE":null,"REV_AT_EPOCH":"5494","MEAN_ELEMENT_THEORY":"SGP4","OBJECT_TYPE":"PAYLOAD"},{"EPHEMERIS_TYPE":"0","MEAN_MOTION":"15.08848837","MEAN_ELEMENT_THEORY":"SGP4","OBJECT_TYPE":"PAYLOAD","REV_AT_EPOCH":"5446","SITE":"AFWTR","DECAY_DATE":null,"TLE_LINE2":"2 50198  53.2166 244.9449 0002086  44.8798 315.2362 15.08848837 54463","CENTER_NAME":"EARTH","TIME_SYSTEM":"UTC","GP_ID":"218409355","REF_FRAME":"TEME","FILE":"3666594","MEAN_ANOMALY":"315.2362","COUNTRY_CODE":"US","EPOCH":"2022-11-21T11:59:26.072448","TLE_LINE1":"1 50198U 21125AU  22325.49960732  .00001045  00000-0  83753-4 0  9998","APOAPSIS":"541.161","OBJECT_ID":"2021-125AU","PERIAPSIS":"538.275","RCS_SIZE":"LARGE","PERIOD":"95.437","ECCENTRICITY":"0.00020860","RA_OF_ASC_NODE":"244.9449","BSTAR":"0.00008375300000","NORAD_CAT_ID":"50198","ELEMENT_SET_NO":"999","INCLINATION":"53.2166","CLASSIFICATION_TYPE":"U","MEAN_MOTION_DDOT":"0.0000000000000","ARG_OF_PERICENTER":"44.8798","OBJECT_NAME":"STARLINK-3264","LAUNCH_DATE":"2021-12-18","MEAN_MOTION_DOT":"0.00001045","SEMIMAJOR_AXIS":"6917.853"},{"SITE":"AFWTR","DECAY_DATE":null,"REV_AT_EPOCH":"5499","TLE_LINE2":"2 50199  53.2178 243.2377 0002719  28.1735 331.9404 15.08838531 54998","MEAN_ELEMENT_THEORY":"SGP4","OBJECT_TYPE":"PAYLOAD","EPHEMERIS_TYPE":"0","MEAN_MOTION":"15.08838531","CLASSIFICATION_TYPE":"U","MEAN_MOTION_DDOT":"0.0000000000000","ARG_OF_PERICENTER":"28.1735","INCLINATION":"53.2178","LAUNCH_DATE":"2021-12-18","MEAN_MOTION_DOT":"0.00002182","SEMIMAJOR_AXIS":"6917.885","OBJECT_NAME":"STARLINK-3270","RA_OF_ASC_NODE":"243.2377","ELEMENT_SET_NO":"999","BSTAR":"0.00015518000000","NORAD_CAT_ID":"50199","PERIAPSIS":"537.869","PERIOD":"95.438","RCS_SIZE":"LARGE","ECCENTRICITY":"0.00027190","APOAPSIS":"541.631","TLE_LINE1":"1 50199U 21125AV  22325.87865140  .00002182  00000-0  15518-3 0  9994","OBJECT_ID":"2021-125AV","GP_ID":"218433546","REF_FRAME":"TEME","CENTER_NAME":"EARTH","TIME_SYSTEM":"UTC","COUNTRY_CODE":"US","MEAN_ANOMALY":"331.9404","EPOCH":"2022-11-21T21:05:15.480960","FILE":"3666658"},{"INCLINATION":"53.2158","MEAN_MOTION_DDOT":"0.0000000000000","ARG_OF_PERICENTER":"22.9526","CLASSIFICATION_TYPE":"U","OBJECT_NAME":"STARLINK-3235","SEMIMAJOR_AXIS":"6917.879","MEAN_MOTION_DOT":"0.00000063","LAUNCH_DATE":"2021-12-18","RA_OF_ASC_NODE":"244.9165","NORAD_CAT_ID":"50200","BSTAR":"0.00002207200000","ELEMENT_SET_NO":"999","OBJECT_ID":"2021-125AW","APOAPSIS":"541.996","TLE_LINE1":"1 50200U 21125AW  22325.50697989  .00000063  00000-0  22072-4 0  9991","PERIOD":"95.438","RCS_SIZE":"LARGE","ECCENTRICITY":"0.00032560","PERIAPSIS":"537.491","TIME_SYSTEM":"UTC","CENTER_NAME":"EARTH","GP_ID":"218400326","REF_FRAME":"TEME","FILE":"3666297","MEAN_ANOMALY":"337.1611","COUNTRY_CODE":"US","EPOCH":"2022-11-21T12:10:03.062496","REV_AT_EPOCH":"5495","DECAY_DATE":null,"SITE":"AFWTR","TLE_LINE2":"2 50200  53.2158 244.9165 0003256  22.9526 337.1611 15.08840579 54958","OBJECT_TYPE":"PAYLOAD","MEAN_ELEMENT_THEORY":"SGP4","EPHEMERIS_TYPE":"0","MEAN_MOTION":"15.08840579"}];
